OBJECT_NAME,OBJECT_ID,EPOCH,MEAN_MOTION,ECCENTRICITY,INCLINATION,RA_OF_ASC_NODE,ARG_OF_PERICENTER,MEAN_ANOMALY,EPHEMERIS_TYPE,CLASSIFICATION_TYPE,NORAD_CAT_ID,ELEMENT_SET_NO,REV_AT_EPOCH,BSTAR,MEAN_MOTION_DOT,MEAN_MOTION_DDOT
KUZGTU 1 (RS47S),2023-091AV,2026-07-15T22:30:48.807360,15.30480144,.0010005,97.5050,261.7210,3.6900,356.4413,0,U,57217,999,16877,.22732701E-3,.663E-4,0
SONATE-2,2024-043Q,2026-07-15T21:05:11.948928,15.60865200,.00068289,97.5558,349.0866,104.4767,255.7248,0,U,59112,999,13236,.32356601E-3,.2697E-3,0
MESAT1,2024-125G,2026-07-15T19:38:23.953920,15.66493732,.00109207,97.2241,55.0170,110.3641,249.8794,0,U,60209,999,11404,.45863564E-3,.47941E-3,0
OOV-CUBE (TUBSAT-30),2024-128F,2026-07-15T22:22:38.710272,15.02875517,.00410255,61.9938,125.3314,140.2024,220.2089,0,U,60240,999,11043,.8501651E-4,.949E-5,0
COLIBRI-S (RS67S),2024-199M,2026-07-15T22:49:15.503232,15.48870561,.0009088,97.2945,71.0850,159.4600,200.7018,0,U,61746,999,14186,.25745134E-3,.13802E-3,0
HORS 3 (RS81S),2024-199U,2026-07-15T21:36:57.764448,15.56942446,.00072435,97.2929,73.3488,153.8507,206.3116,0,U,61753,999,14202,.34639951E-3,.24908E-3,0
HORS 4 (RS82S),2024-199V,2026-07-15T23:02:14.528832,15.62439088,.00071073,97.2871,74.8126,146.1000,214.0714,0,U,61754,999,14213,.41055528E-3,.36443E-3,0
SIT-2086,2024-199AF,2026-07-15T21:55:53.752512,15.55053527,.00083124,97.2884,73.7390,142.3764,217.8074,0,U,61764,999,13889,.34935067E-3,.23434E-3,0
HYPERVIEW 1G (RS66S),2024-199AP,2026-07-15T22:26:59.984736,15.85573049,.00083368,97.2786,78.2979,146.4602,213.7198,0,U,61772,999,13921,.71456137E-3,.174641E-2,0
ALTAIR (RS65S),2024-199AW,2026-07-15T22:44:53.679264,15.37516755,.00121189,97.2988,66.1137,193.6802,166.4116,0,U,61779,999,14153,.18042474E-3,.6573E-4,0
ASRTU-1 (AO-123),2024-199AY,2026-07-15T21:31:32.985120,15.36059837,.00130957,97.2959,65.3110,197.9784,162.0998,0,U,61781,999,13833,.12479803E-3,.4313E-4,0
SAMSAT-IONOSPHERE (RS75S),2024-199BB,2026-07-15T22:40:27.965568,15.60172466,.0009317,97.2892,73.5562,157.6136,202.5529,0,U,61784,999,14204,.44078817E-3,.35898E-3,0
RTU MIREA 1 (RS51S),2024-199BC,2026-07-15T21:34:52.131936,15.64338217,.00093781,97.2880,74.5035,153.0310,207.1439,0,U,61785,999,13895,.4771721E-3,.45734E-3,0
TEVEL2-4,2025-052D,2026-07-15T03:30:38.474496,15.35565165,.00035404,97.3870,92.5984,51.9364,308.2199,0,U,63213,999,7440,.31214817E-3,.10715E-3,0
TEVEL2-5,2025-052E,2026-07-15T04:04:51.940704,15.35379345,.00035943,97.3866,92.5619,53.2255,306.9318,0,U,63214,999,7440,.30277793E-3,.10329E-3,0
TEVEL2-6,2025-052F,2026-07-15T12:12:47.954304,15.35351129,.00036215,97.3871,92.8865,54.7007,305.4575,0,U,63215,999,7445,.343915E-3,.11734E-3,0
TEVEL2-1,2025-052H,2026-07-14T15:14:51.352512,15.34761887,.0004319,97.3847,91.6018,61.6960,298.4718,0,U,63217,999,7430,.2955724E-3,.9885E-4,0
TEVEL2-3,2025-052J,2026-07-15T05:10:33.241728,15.34836829,.00039996,97.3848,92.2082,62.2511,297.9137,0,U,63218,999,7439,.30743443E-3,.10309E-3,0
TEVEL2-2,2025-052K,2026-07-15T03:46:07.684032,15.34784029,.00043245,97.3840,92.1268,60.5637,299.6037,0,U,63219,999,7438,.30238262E-3,.10122E-3,0
OTP-2,2025-052AB,2026-07-15T04:40:21.861408,15.24337017,.00082123,97.3835,88.2085,71.0688,289.1439,0,U,63235,999,7413,.15351734E-3,.3687E-4,0
TEVEL2-9,2025-052AD,2026-07-15T22:54:43.530336,15.32746436,.00076157,97.3903,92.2363,55.0737,305.1220,0,U,63237,999,7443,.29400341E-3,.9229E-4,0
TEVEL2-7,2025-052AE,2026-07-15T03:39:30.098880,15.32415280,.0007756,97.3906,91.3390,56.8395,303.3590,0,U,63238,999,7430,.29112625E-3,.9043E-4,0
TEVEL2-8,2025-052AF,2026-07-15T22:40:08.314752,15.32415227,.00077414,97.3903,92.1059,55.6204,304.5769,0,U,63239,999,7442,.29547985E-3,.9179E-4,0
INNOSAT 16 (RS92S7),2025-155C,2026-07-15T22:15:06.941952,15.25742888,.00124766,97.4584,163.9723,86.1897,274.0767,0,U,64878,999,8505,.11647833E-3,.2903E-4,0
GEOSCAN 6 (RS92S6),2025-155D,2026-07-15T22:48:36.218880,15.30663614,.00099476,97.4575,165.6274,79.9655,280.2707,0,U,64879,999,8516,.19723808E-3,.5776E-4,0
GEOSCAN 1 (RS92S1),2025-155E,2026-07-15T22:35:15.547488,15.31312176,.00099,97.4571,165.7921,80.2347,280.0011,0,U,64880,999,8517,.21066671E-3,.6301E-4,0
239ALFEROV (RS61S),2025-155F,2026-07-15T22:23:54.153024,15.33683457,.00096025,97.4570,166.4460,80.0718,280.1608,0,U,64881,999,8521,.27719827E-3,.8961E-4,0
GEOSCAN 2 (RS92S2),2025-155Q,2026-07-15T22:19:03.372096,15.31569652,.00090351,97.4570,165.9445,70.5894,289.6323,0,U,64890,999,8518,.2084113E-3,.6281E-4,0
GEOSCAN 5 (RS92S5),2025-155R,2026-07-15T21:59:40.079040,15.33988348,.00086237,97.4562,166.5772,84.5885,275.6341,0,U,64891,999,8522,.25620204E-3,.8354E-4,0
GEOSCAN 4 (RS92S4),2025-155S,2026-07-15T23:06:29.761344,15.34157279,.00085316,97.4567,166.6812,84.8153,275.4063,0,U,64892,999,8523,.25606021E-3,.8394E-4,0
