KUZGTU 1 (RS47S)        
1 57217U 23091AV  26196.93806490  .00006630  00000+0  22733-3 0  9994
2 57217  97.5050 261.7210 0010005   3.6900 356.4413 15.30480144168778
SONATE-2                
1 59112U 24043Q   26196.87861052  .00026970  00000+0  32357-3 0  9998
2 59112  97.5558 349.0866 0006828 104.4767 255.7248 15.60865200132369
MESAT1                  
1 60209U 24125G   26196.81833280  .00047941  00000+0  45864-3 0  9992
2 60209  97.2241  55.0170 0010920 110.3641 249.8794 15.66493732114049
OOV-CUBE (TUBSAT-30)    
1 60240U 24128F   26196.93239248  .00000949  00000+0  85017-4 0  9999
2 60240  61.9938 125.3314 0041025 140.2024 220.2089 15.02875517110437
COLIBRI-S (RS67S)       
1 61746U 24199M   26196.95087388  .00013802  00000+0  25745-3 0  9990
2 61746  97.2945  71.0850 0009088 159.4600 200.7018 15.48870561141866
HORS 3 (RS81S)          
1 61753U 24199U   26196.90066857  .00024908  00000+0  34640-3 0  9994
2 61753  97.2929  73.3488 0007243 153.8507 206.3116 15.56942446142024
HORS 4 (RS82S)          
1 61754U 24199V   26196.95989038  .00036443  00000+0  41056-3 0  9991
2 61754  97.2871  74.8126 0007107 146.1000 214.0714 15.62439088142130
SIT-2086                
1 61764U 24199AF  26196.91381658  .00023434  00000+0  34935-3 0  9996
2 61764  97.2884  73.7390 0008312 142.3764 217.8074 15.55053527138890
HYPERVIEW 1G (RS66S)    
1 61772U 24199AP  26196.93541649  .00174641  00000+0  71456-3 0  9991
2 61772  97.2786  78.2979 0008336 146.4602 213.7198 15.85573049139213
ALTAIR (RS65S)          
1 61779U 24199AW  26196.94784351  .00006573  00000+0  18042-3 0  9998
2 61779  97.2988  66.1137 0012118 193.6802 166.4116 15.37516755141535
ASRTU-1 (AO-123)        
1 61781U 24199AY  26196.89690955  .00004313  00000+0  12480-3 0  9991
2 61781  97.2959  65.3110 0013095 197.9784 162.0998 15.36059837138335
SAMSAT-IONOSPHERE (RS7*)
1 61784U 24199BB  26196.94476812  .00035898  00000+0  44079-3 0  9995
2 61784  97.2892  73.5562 0009317 157.6136 202.5529 15.60172466142046
RTU MIREA 1 (RS51S)     
1 61785U 24199BC  26196.89921449  .00045734  00000+0  47717-3 0  9993
2 61785  97.2880  74.5035 0009378 153.0310 207.1439 15.64338217138959
TEVEL2-4                
1 63213U 25052D   26196.14627864  .00010715  00000+0  31215-3 0  9999
2 63213  97.3870  92.5984 0003540  51.9364 308.2199 15.35565165 74407
TEVEL2-5                
1 63214U 25052E   26196.17004561  .00010329  00000+0  30278-3 0  9995
2 63214  97.3866  92.5619 0003594  53.2255 306.9318 15.35379345 74402
TEVEL2-6                
1 63215U 25052F   26196.50888836  .00011734  00000+0  34391-3 0  9999
2 63215  97.3871  92.8865 0003621  54.7007 305.4575 15.35351129 74451
TEVEL2-1                
1 63217U 25052H   26195.63531658  .00009885  00000+0  29557-3 0  9993
2 63217  97.3847  91.6018 0004319  61.6960 298.4718 15.34761887 74302
TEVEL2-3                
1 63218U 25052J   26196.21566252  .00010309  00000+0  30743-3 0  9999
2 63218  97.3848  92.2082 0003999  62.2511 297.9137 15.34836829 74391
TEVEL2-2                
1 63219U 25052K   26196.15703338  .00010122  00000+0  30238-3 0  9993
2 63219  97.3840  92.1268 0004324  60.5637 299.6037 15.34784029 74383
OTP-2                   
1 63235U 25052AB  26196.19469747  .00003687  00000+0  15352-3 0  9996
2 63235  97.3835  88.2085 0008212  71.0688 289.1439 15.24337017 74134
TEVEL2-9                
1 63237U 25052AD  26196.95467049  .00009229  00000+0  29400-3 0  9992
2 63237  97.3903  92.2363 0007615  55.0737 305.1220 15.32746436 74437
TEVEL2-7                
1 63238U 25052AE  26196.15243170  .00009043  00000+0  29113-3 0  9997
2 63238  97.3906  91.3390 0007756  56.8395 303.3590 15.32415280 74302
TEVEL2-8                
1 63239U 25052AF  26196.94454068  .00009179  00000+0  29548-3 0  9997
2 63239  97.3903  92.1059 0007741  55.6204 304.5769 15.32415227 74426
INNOSAT 16 (RS92S7)     
1 64878U 25155C   26196.92716368  .00002903  00000+0  11648-3 0  9993
2 64878  97.4584 163.9723 0012476  86.1897 274.0767 15.25742888 85053
GEOSCAN 6 (RS92S6)      
1 64879U 25155D   26196.95041920  .00005776  00000+0  19724-3 0  9996
2 64879  97.4575 165.6274 0009947  79.9655 280.2707 15.30663614 85165
GEOSCAN 1 (RS92S1)      
1 64880U 25155E   26196.94115217  .00006301  00000+0  21067-3 0  9996
2 64880  97.4571 165.7921 0009900  80.2347 280.0011 15.31312176 85177
239ALFEROV (RS61S)      
1 64881U 25155F   26196.93326566  .00008961  00000+0  27720-3 0  9993
2 64881  97.4570 166.4460 0009602  80.0718 280.1608 15.33683457 85215
GEOSCAN 2 (RS92S2)      
1 64890U 25155Q   26196.92990014  .00006281  00000+0  20841-3 0  9997
2 64890  97.4570 165.9445 0009035  70.5894 289.6323 15.31569652 85183
GEOSCAN 5 (RS92S5)      
1 64891U 25155R   26196.91643610  .00008354  00000+0  25620-3 0  9997
2 64891  97.4562 166.5772 0008623  84.5885 275.6341 15.33988348 85221
GEOSCAN 4 (RS92S4)      
1 64892U 25155S   26196.96284446  .00008394  00000+0  25606-3 0  9999
2 64892  97.4567 166.6812 0008531  84.8153 275.4063 15.34157279 85234
